MOLNIYA 2-9             
1 07276U 74026A   22223.07398756  .00000120  00000+0  00000+0 0  9998
2 07276  64.2810 219.5228 6459911 280.6794  17.2643  2.45097561250723
MOLNIYA 2-10            
1 07376U 74056A   22224.58295086 -.00001128  00000+0  00000+0 0  9991
2 07376  64.1953  88.9947 6736566 286.2869  13.6155  2.01158704351512
MOLNIYA 1-S             
1 07392U 74060A   22224.70001807 -.00000050  00000+0  00000+0 0  9997
2 07392   4.9783 282.0937 0011833 210.5069 151.5615  1.00199034120097
MOLNIYA 1-29            
1 07780U 75036A   22224.00731078  .00000087  00000+0 -13935-3 0  9990
2 07780  63.4167 209.0212 6892902 288.6885  11.9439  2.00629106346734
MOLNIYA 2-14            
1 08195U 75081A   22224.09965605  .00001248  00000+0  00000+0 0  9999
2 08195  63.3842 181.9921 6796279 292.9084  11.4317  2.02069568344019
MOLNIYA 1-32            
1 08601U 76006A   22223.01584387 -.00000454  00000+0  13691-1 0  9995
2 08601  63.4807 289.9943 7246804 283.7900  11.2993  2.00089793 53752
MOLNIYA 1-36            
1 09880U 77021A   22225.17502986  .00000454  00000+0  00000+0 0  9994
2 09880  63.4845 261.1113 7173108 289.6861  10.2627  2.00901329230592
MOLNIYA 3-8             
1 10455U 77105A   22224.38922094 -.00000216  00000+0  64532-3 0  9996
2 10455  63.3869 349.3620 7370153 282.2498  10.8744  2.00846185328269
MOLNIYA 1-40            
1 10925U 78055A   22220.57898581  .00000473  00000+0  00000+0 0  9993
2 10925  63.3505  40.7684 7262166 280.6655  11.7642  2.00693996323724
MOLNIYA 3-10            
1 11057U 78095A   22224.46283625 -.00000145  00000+0 -24430-3 0  9998
2 11057  63.1719  18.6115 5792655 310.7395  11.7212  4.09854156386027
MOLNIYA 3-13            
1 11896U 80063A   22224.29756931  .00000353  00000+0  00000+0 0  9995
2 11896  62.6968 130.3534 7102257 276.3355  14.0958  2.00655963308215
MOLNIYA 1-49            
1 12156U 81009A   22220.21288219  .00000090  00000+0 -31950-3 0  9994
2 12156  61.6994 157.7200 7266759 263.0073  17.3347  2.05699471222551
MOLNIYA 1-52            
1 13012U 81123A   22225.13051516 -.00000614  00000+0 -47508-2 0  9995
2 13012  61.7415 270.6558 7241021 255.5328  20.8431  2.00405570297787
MOLNIYA 1-53            
1 13070U 82015A   22224.42393822 -.00001047  00000+0  71256-2 0  9997
2 13070  62.6374 207.2939 7035954 282.8133  12.6167  2.00790849296383
MOLNIYA 3-20            
1 13875U 83015A   22224.42393227  .00001321  00000+0  28968-2 0  9996
2 13875  62.7143 343.9338 7401995 258.5405  18.0247  2.00462041224870
MOLNIYA 1-56            
1 13890U 83019A   22224.70726848 -.00000469  00000+0  58180-3 0  9990
2 13890  62.9961   9.1172 7448698 264.5277  15.3013  1.99983750287725
MOLNIYA 1-63            
1 15429U 84124A   22223.21800243  .00001081  00000+0  00000+0 0  9999
2 15429  63.7489 162.5821 6640024 259.3817 210.6322  2.00791834275859
MOLNIYA 3-24            
1 15738U 85040A   22223.71024987 -.00000071  00000+0  00000+0 0  9997
2 15738  63.6685  72.5060 6814517 247.2894  30.6866  2.55627196305288
MOLNIYA 3-27            
1 16393U 85117A   22223.78289798 -.00000086  00000+0  00000+0 0  9996
2 16393  64.3963  74.3360 6989605 248.1588  27.9395  2.12396817275353
MOLNIYA 1-69            
1 17078U 86089A   22222.69834299  .00000026  00000+0  00000+0 0  9990
2 17078  63.9927 181.4612 6646847 257.8261  25.8416  2.00680988261912
MOLNIYA 3-31            
1 17328U 87008A   22223.78858446  .00000413  00000+0  00000+0 0  9991
2 17328  63.6954 122.1815 7045464 253.8104  23.8289  2.00600298256977
MOLNIYA 1-71            
1 18946U 88017A   22222.73808507 -.00000244  00000+0  00000+0 0  9999
2 18946  63.4126 116.3920 7158345 256.4396  21.2528  2.00651996252144
MOLNIYA 1-75            
1 19807U 89014A   22221.95366246  .00000128  00000+0  00000+0 0  9996
2 19807  64.0556 278.7327 6854059 266.8378  19.5377  2.00581458245079
MOLNIYA 1-80            
1 21118U 91012A   22223.68608940 -.00000231  00000+0  00000+0 0  9993
2 21118  65.1919 326.9081 6788484 276.9384  16.3354  2.05237063232118
MOLNIYA 3-40            
1 21196U 91022A   22222.52209771  .00001076  00000+0  00000+0 0  9998
2 21196  65.1084 320.6382 6818971 273.7438  17.2165  2.02994642230783
MOLNIYA 1-81            
1 21426U 91043A   22223.86341005  .00000037  00000+0  00000+0 0  9998
2 21426  64.1124 337.0228 7097770 266.7137  17.5268  2.00632682228278
MOLNIYA 3-41            
1 21706U 91065A   22224.18858956  .00000084  00000+0  00000+0 0  9999
2 21706  64.1014 160.0113 6844027 255.4105  25.1238  2.04344375228004
MOLNIYA 3-42            
1 22178U 92067A   22221.87315150  .00000193  00000+0  00000+0 0  9994
2 22178  64.6764 210.3106 6427855 266.2336  23.5758  2.20435598 81235
MOLNIYA 1-86            
1 22671U 93035A   22224.68698697  .00000280  00000+0  41124-3 0  9993
2 22671  63.0895 204.2640 4860042   7.9058 357.5739  5.62684032355460
MOLNIYA 1-87            
1 22949U 93079A   22223.76180689  .00000796  00000+0  00000+0 0  9990
2 22949  63.9843  85.9429 6878776 284.0977  13.3262  2.02870603 76057
MOLNIYA 1-88            
1 23420U 94081A   22224.10041630  .00000078  00000+0  00000+0 0  9993
2 23420  64.2802 183.4210 5802794 282.0627  21.6457  3.34498072115569
MOLNIYA 3-47            
1 23642U 95042A   22221.25576715  .00001184  00000+0  00000+0 0  9996
2 23642  64.0938  68.0201 6929248 284.3788  12.9078  2.01948208198083
MOLNIYA 1-90            
1 24960U 97054A   22224.88870808  .00000050  00000+0 -33894-2 0  9999
2 24960  63.6401 149.8569 6112808 298.3564  13.7808  3.18689366209882
MOLNIYA 1-91            
1 25485U 98054A   22224.66315122  .00000150  00000+0  22925-2 0  9995
2 25485  63.0290 141.4459 6774309 291.8990  12.1981  2.36444815179712
MOLNIYA 3-50            
1 25847U 99036A   22224.34099905  .00000302  00000+0  57965-3 0  9993
2 25847  63.2039 325.7569 7379887 282.0738  10.9067  2.00651624169237
